ROBUSTA-3A (MEDITERRAN*)
1 60243U 24128J   26064.62516668  .00012485  00000+0  75286-3 0  9990
2 60243  61.9867 214.0217 0052326 107.6579 253.0238 15.09965229 90778
LASARSAT                
1 62391U 24247Q   26064.20954618  .00035378  00000+0  87708-3 0  9991
2 62391  44.9754 123.6865 0002783 357.5734   2.5139 15.39833559 67252
CROCUBE                 
1 62394U 24247T   26064.43706874  .00038269  00000+0  91317-3 0  9991
2 62394  44.9734 121.0825 0002831 345.9820  14.0989 15.40958769 67302
