[{"OBJECT_NAME":"ROBUSTA-3A (MEDITERRANEE)","OBJECT_ID":"2024-128J","EPOCH":"2026-03-05T15:00:14.401152","MEAN_MOTION":15.09965229,"ECCENTRICITY":0.0052326,"INCLINATION":61.9867,"RA_OF_ASC_NODE":214.0217,"ARG_OF_PERICENTER":107.6579,"MEAN_ANOMALY":253.0238,"EPHEMERIS_TYPE":0,"CLASSIFICATION_TYPE":"U","NORAD_CAT_ID":60243,"ELEMENT_SET_NO":999,"REV_AT_EPOCH":9077,"BSTAR":0.00075286,"MEAN_MOTION_DOT":0.00012485,"MEAN_MOTION_DDOT":0},{"OBJECT_NAME":"LASARSAT","OBJECT_ID":"2024-247Q","EPOCH":"2026-03-05T05:01:44.789952","MEAN_MOTION":15.39833559,"ECCENTRICITY":0.0002783,"INCLINATION":44.9754,"RA_OF_ASC_NODE":123.6865,"ARG_OF_PERICENTER":357.5734,"MEAN_ANOMALY":2.5139,"EPHEMERIS_TYPE":0,"CLASSIFICATION_TYPE":"U","NORAD_CAT_ID":62391,"ELEMENT_SET_NO":999,"REV_AT_EPOCH":6725,"BSTAR":0.00087708,"MEAN_MOTION_DOT":0.00035378,"MEAN_MOTION_DDOT":0},{"OBJECT_NAME":"CROCUBE","OBJECT_ID":"2024-247T","EPOCH":"2026-03-05T10:29:22.739136","MEAN_MOTION":15.40958769,"ECCENTRICITY":0.0002831,"INCLINATION":44.9734,"RA_OF_ASC_NODE":121.0825,"ARG_OF_PERICENTER":345.982,"MEAN_ANOMALY":14.0989,"EPHEMERIS_TYPE":0,"CLASSIFICATION_TYPE":"U","NORAD_CAT_ID":62394,"ELEMENT_SET_NO":999,"REV_AT_EPOCH":6730,"BSTAR":0.00091317,"MEAN_MOTION_DOT":0.00038269,"MEAN_MOTION_DDOT":0}]
